{
  "type": "FeatureCollection",
  "metadata": {
    "attribution": "© OpenStreetMap contributors",
    "copyright_url": "https://www.openstreetmap.org/copyright",
    "corridor": "Shivajinagar–Deccan–Swargate",
    "bounds": [73.835, 18.480, 73.865, 18.535],
    "retrieved": "2026-07-25",
    "note": "A compact locally bundled rendering context derived from OpenStreetMap geography."
  },
  "features": [
    {"type":"Feature","properties":{"kind":"district","name":"Shivajinagar"},"geometry":{"type":"Polygon","coordinates":[[[73.838,18.522],[73.855,18.522],[73.855,18.535],[73.838,18.535],[73.838,18.522]]]}},
    {"type":"Feature","properties":{"kind":"district","name":"Deccan"},"geometry":{"type":"Polygon","coordinates":[[[73.835,18.505],[73.851,18.505],[73.851,18.521],[73.835,18.521],[73.835,18.505]]]}},
    {"type":"Feature","properties":{"kind":"district","name":"Swargate"},"geometry":{"type":"Polygon","coordinates":[[[73.847,18.480],[73.865,18.480],[73.865,18.499],[73.847,18.499],[73.847,18.480]]]}},
    {"type":"Feature","properties":{"kind":"road","name":"Jangli Maharaj Road"},"geometry":{"type":"LineString","coordinates":[[73.8465,18.531],[73.844,18.522],[73.842,18.516]]}},
    {"type":"Feature","properties":{"kind":"road","name":"Bajirao Road"},"geometry":{"type":"LineString","coordinates":[[73.842,18.516],[73.849,18.506],[73.854,18.497],[73.8567,18.4862]]}},
    {"type":"Feature","properties":{"kind":"road","name":"Tilak Road"},"geometry":{"type":"LineString","coordinates":[[73.841,18.507],[73.850,18.504],[73.859,18.501]]}},
    {"type":"Feature","properties":{"kind":"river","name":"Mutha River"},"geometry":{"type":"LineString","coordinates":[[73.835,18.514],[73.844,18.513],[73.855,18.511],[73.865,18.509]]}},
    {"type":"Feature","properties":{"kind":"landmark","name":"Shaniwar Wada"},"geometry":{"type":"Point","coordinates":[73.8553,18.5195]}},
    {"type":"Feature","properties":{"kind":"landmark","name":"Saras Baug"},"geometry":{"type":"Point","coordinates":[73.8535,18.4998]}},
    {"type":"Feature","properties":{"kind":"landmark","name":"Swargate"},"geometry":{"type":"Point","coordinates":[73.8567,18.4862]}}
  ]
}
